IRIDIUM 106             
1 41917U 17003A   23259.21952319  .00000406  00000+0  13806-3 0  9996
2 41917  86.4017 148.5436 0002154  78.2853 281.8585 14.34216035349165
IRIDIUM 103             
1 41918U 17003B   23259.55567994  .00000393  00000+0  13343-3 0  9996
2 41918  86.4012 148.3063 0002367  80.9180 279.2284 14.34218520349230
IRIDIUM 109             
1 41919U 17003C   23259.21317659  .00000454  00000+0  15491-3 0  9995
2 41919  86.4014 148.4919 0002218  87.2492 272.8957 14.34217754349150
IRIDIUM 102             
1 41920U 17003D   23259.18146285  .00000429  00000+0  14611-3 0  9993
2 41920  86.4011 148.4502 0002144  84.7507 275.3934 14.34217794349230
IRIDIUM 105             
1 41921U 17003E   23259.57080462  .00000360  00000+0  12142-3 0  9992
2 41921  86.3944 116.7223 0002132  83.9978 276.1461 14.34215245351149
IRIDIUM 104             
1 41922U 17003F   23259.19414826  .00000036  00000+0  56747-5 0  9997
2 41922  86.4014 148.4724 0002260  82.5868 277.5584 14.34215922349221
IRIDIUM 114             
1 41923U 17003G   23259.20048704  .00000440  00000+0  15008-3 0  9990
2 41923  86.4013 148.4564 0001806  78.1903 281.9495 14.34216648349203
IRIDIUM 108             
1 41924U 17003H   23259.57761979  .00000372  00000+0  12578-3 0  9990
2 41924  86.3937 116.6620 0002050  77.1206 283.0219 14.34219103351114
